[{"OBJECT_NAME":"STARLINK-5865","OBJECT_ID":"2023-088F","EPOCH":"2026-03-09T10:53:59.688384","MEAN_MOTION":15.02533595,"ECCENTRICITY":0.00011783,"INCLINATION":43.0027,"RA_OF_ASC_NODE":108.8078,"ARG_OF_PERICENTER":270.98,"MEAN_ANOMALY":89.0907,"EPHEMERIS_TYPE":0,"CLASSIFICATION_TYPE":"U","NORAD_CAT_ID":57053,"ELEMENT_SET_NO":999,"REV_AT_EPOCH":15033,"BSTAR":-4.665618e-6,"MEAN_MOTION_DOT":-2.67e-6,"MEAN_MOTION_DDOT":0},{"OBJECT_NAME":"THOR ABLE DEB [YO]","OBJECT_ID":"1960-002D","EPOCH":"2026-03-09T10:49:33.639456","MEAN_MOTION":14.97533438,"ECCENTRICITY":0.00268025,"INCLINATION":48.1611,"RA_OF_ASC_NODE":231.3365,"ARG_OF_PERICENTER":170.582,"MEAN_ANOMALY":189.5606,"EPHEMERIS_TYPE":0,"CLASSIFICATION_TYPE":"U","NORAD_CAT_ID":115,"ELEMENT_SET_NO":999,"REV_AT_EPOCH":50318,"BSTAR":0.00053607823,"MEAN_MOTION_DOT":6.13e-5,"MEAN_MOTION_DDOT":0}]
